[{"OBJECT_NAME":"BB4","OBJECT_ID":"2023-133B","EPOCH":"2026-03-09T21:37:27.149088","MEAN_MOTION":14.03089986,"ECCENTRICITY":0.00081277,"INCLINATION":80.9964,"RA_OF_ASC_NODE":101.1751,"ARG_OF_PERICENTER":265.8023,"MEAN_ANOMALY":94.2214,"EPHEMERIS_TYPE":0,"CLASSIFICATION_TYPE":"U","NORAD_CAT_ID":57757,"ELEMENT_SET_NO":999,"REV_AT_EPOCH":12736,"BSTAR":0.00015013184,"MEAN_MOTION_DOT":2.45e-6,"MEAN_MOTION_DDOT":0},{"OBJECT_NAME":"CZ-6A DEB","OBJECT_ID":"2022-151FB","EPOCH":"2026-03-09T21:08:44.152512","MEAN_MOTION":13.85244801,"ECCENTRICITY":0.0175983,"INCLINATION":99.04,"RA_OF_ASC_NODE":40.9524,"ARG_OF_PERICENTER":66.6438,"MEAN_ANOMALY":295.3123,"EPHEMERIS_TYPE":0,"CLASSIFICATION_TYPE":"U","NORAD_CAT_ID":54427,"ELEMENT_SET_NO":999,"REV_AT_EPOCH":16755,"BSTAR":0.0013780778,"MEAN_MOTION_DOT":1.725e-5,"MEAN_MOTION_DDOT":0}]
